{
"debris":[
{"name": "TDRS 3                  ", "line1": "1 19548U 88091B   19105.91944309 -.00000313  00000-0  00000-0 0  9996", "line2": "2 19548  14.3590   1.3590 0036472 323.3413 161.0856  1.00266225 99144"},
{"name": "BD-2-G7                 ", "line1": "1 41586U 16037A   19105.95289015 -.00000374  00000-0  00000-0 0  9991", "line2": "2 41586   0.8184  33.4972 0009544   9.3005 254.5599  1.00268244 10528"},
{"name": "ABS-2A (MONGOLSAT-1)    ", "line1": "1 41588U 16038A   19105.92479944 -.00000104  00000-0  00000-0 0  9994", "line2": "2 41588   0.0186 212.0302 0002535 103.4429 295.9360  1.00268418 10444"},
{"name": "EUTELSAT 117 WEST B     ", "line1": "1 41589U 16038B   19105.90045125 -.00000033  00000-0  00000-0 0  9994", "line2": "2 41589   0.0141  73.4313 0000104 275.1205  62.3939  1.00275222 10412"},
{"name": "BRISAT                  ", "line1": "1 41591U 16039A   19105.79459222 -.00000218  00000-0  00000-0 0  9997", "line2": "2 41591   0.0227 231.9934 0002242 145.1324 263.0754  1.00268758 10357"},
{"name": "ECHOSTAR 18             ", "line1": "1 41592U 16039B   19105.91896478 -.00000302  00000-0  00000-0 0  9994", "line2": "2 41592   0.0183 212.6897 0001733 170.2238  90.3375  1.00268187 10378"},
{"name": "MUOS-5                  ", "line1": "1 41622U 16041A   19105.61580051 -.00000178  00000-0  00000-0 0  9996", "line2": "2 41622   8.1263 311.6653 0200711 206.5614 161.8722  1.00271584 10823"},
{"name": "TIANTONG-1 1            ", "line1": "1 41725U 16048A   19105.94398196 -.00000343  00000-0  00000-0 0  9994", "line2": "2 41725   3.6104 328.4196 0006317  48.3138 268.3045  1.00272754  9995"},
{"name": "JCSAT-16                ", "line1": "1 41729U 16050A   19105.87907845 -.00000327  00000-0  00000+0 0  9991", "line2": "2 41729   0.0188 203.5983 0002765 154.2806 298.3188  1.00271106  9802"},
{"name": "INTELSAT 36 (IS-36)     ", "line1": "1 41747U 16053A   19105.86564411 -.00000045  00000-0  00000-0 0  9999", "line2": "2 41747   0.0180 283.2472 0000889  53.8447 246.7583  1.00270651  9701"},
{"name": "INTELSAT 33E (IS-33E)   ", "line1": "1 41748U 16053B   19105.92710477  .00000029  00000-0  00000-0 0  9993", "line2": "2 41748   0.0161  41.7649 0002097 354.1687 201.5798  1.00269313  9991"},
{"name": "INSAT-3DR               ", "line1": "1 41752U 16054A   19105.92479944 -.00000098  00000-0  00000-0 0  9997", "line2": "2 41752   0.1383  95.0573 0011583 188.1076 327.5329  1.00271496  9543"},
{"name": "GSAT-18                 ", "line1": "1 41793U 16060A   19105.92479944 -.00000098  00000-0  00000-0 0  9999", "line2": "2 41793   0.0986  95.4887 0001247 322.3779 192.8278  1.00271557  9270"},
{"name": "SKY MUSTER 2            ", "line1": "1 41794U 16060B   19105.88091042 -.00000265  00000-0  00000-0 0  9990", "line2": "2 41794   0.0143 257.8824 0001558 117.6693 290.1161  1.00271190  9250"},
{"name": "HIMAWARI-9              ", "line1": "1 41836U 16064A   19105.80824289 -.00000296  00000-0  00000-0 0  9994", "line2": "2 41836   0.0449  70.8196 0000385 319.8120 244.7806  1.00270388  8921"},
{"name": "SHIJIAN-17 (SJ-17)      ", "line1": "1 41838U 16065A   19105.95131795 -.00000282  00000-0  00000-0 0  9991", "line2": "2 41838   0.6208  96.9259 0002959 291.8448 251.6205  1.00263371  8960"},
{"name": "GOES 16                 ", "line1": "1 41866U 16071A   19105.90882590 -.00000269  00000-0  00000-0 0  9995", "line2": "2 41866   0.0073 351.0111 0000706  56.2342  48.4914  1.00272652  8850"},
{"name": "TIANLIAN 1-04           ", "line1": "1 41869U 16072A   19105.14940213 -.00000127  00000-0  00000-0 0  9995", "line2": "2 41869   1.2170 284.5381 0014225 151.0245 258.1709  1.00271514  9040"},
{"name": "WGS F8 (USA 272)        ", "line1": "1 41879U 16075A   19105.81007485 -.00000224  00000-0  00000-0 0  9996", "line2": "2 41879   0.0117 223.3214 0000153 190.6321 231.1289  1.00269449  8579"},
{"name": "FENGYUN 4A              ", "line1": "1 41882U 16077A   19105.79901308 -.00000349  00000-0  00000-0 0  9994", "line2": "2 41882   0.1978 287.2365 0004787 220.7495  87.7485  1.00266214  8715"},
{"name": "ECHOSTAR 19             ", "line1": "1 41893U 16079A   19105.83258171 -.00000159  00000-0  00000-0 0  9995", "line2": "2 41893   0.0166 176.4458 0001294 204.8161  25.0421  1.00270392  8447"},
{"name": "JCSAT-15                ", "line1": "1 41903U 16082A   19105.93105164 -.00000372  00000-0  00000-0 0  9992", "line2": "2 41903   0.0180 238.6693 0001495 140.3902 269.9684  1.00270719  8495"},
{"name": "STAR ONE D1             ", "line1": "1 41904U 16082B   19105.90699394 -.00000231  00000-0  00000-0 0  9997", "line2": "2 41904   0.0161 148.4005 0002238 246.6487  51.2162  1.00270850  8505"},
{"name": "TJS-2                   ", "line1": "1 41911U 17001A   19105.89007519 -.00000363  00000-0  00000-0 0  9993", "line2": "2 41911   0.0577 291.0428 0006482  44.8951 295.6973  1.00266835  8464"},
{"name": "SBIRS GEO-3 (USA 273)   ", "line1": "1 41937U 17004A   19105.82019422  .00000101  00000-0  00000-0 0  9992", "line2": "2 41937   4.6372 312.5077 0002239  70.3199 316.7086  1.00272072  8345"},
{"name": "HISPASAT 36W-1          ", "line1": "1 41942U 17006A   19105.77299959 -.00000265  00000-0  00000-0 0  9991", "line2": "2 41942   0.0156  45.7123 0000956 334.9455  65.2457  1.00271908  7968"},
{"name": "TELKOM 3S               ", "line1": "1 41944U 17007A   19105.87550177 -.00000383  00000-0  00000+0 0  9997", "line2": "2 41944   0.0194 264.9284 0002626 125.4178 246.5719  1.00270954  7949"},
{"name": "INTELSAT 32E (IS-32E)   ", "line1": "1 41945U 17007B   19105.91519411 -.00000290  00000-0  00000-0 0  9997", "line2": "2 41945   0.0196 213.0097 0000279 116.1789 160.8824  1.00267509  7976"},
{"name": "ECHOSTAR 23             ", "line1": "1 42070U 17014A   19105.92113639 -.00000294  00000-0  00000-0 0  9992", "line2": "2 42070   0.0204 208.3168 0002125 181.7737 100.4032  1.00268666  7678"},
{"name": "WGS F9 (USA 275)        ", "line1": "1 42075U 17016A   19105.90743594  .00000052  00000-0  00000-0 0  9997", "line2": "2 42075   0.0115 226.5024 0000358 113.9081 246.8238  1.00271538  7633"},
{"name": "SES-10                  ", "line1": "1 42432U 17017A   19105.91048337 -.00000293  00000-0  00000-0 0  9997", "line2": "2 42432   0.0142 228.1352 0003139 178.4731  58.0411  1.00269047  7504"},
{"name": "CHINASAT 16 (SJ-13)     ", "line1": "1 42662U 17018A   19105.95289015 -.00000373  00000-0  00000-0 0  9996", "line2": "2 42662   0.0507  76.2209 0003660 183.3284  37.7895  1.00273102  7466"},
{"name": "KOREASAT 7              ", "line1": "1 42691U 17023A   19105.95273274 -.00000383  00000-0  00000-0 0  9995", "line2": "2 42691   0.0137 127.4690 0001428 262.5350 272.6858  1.00271419  7114"},
{"name": "SGDC                    ", "line1": "1 42692U 17023B   19105.64265071 -.00000270  00000-0  00000-0 0  9993", "line2": "2 42692   0.0501  63.0849 0002433 324.0404 332.8820  1.00271330  7156"},
{"name": "GSAT-9                  ", "line1": "1 42695U 17024A   19105.91369089 -.00000308  00000-0  00000-0 0  9993", "line2": "2 42695   0.0340 120.0944 0002427 278.5292 231.4131  1.00274805  7060"},
{"name": "INMARSAT 5-F4           ", "line1": "1 42698U 17025A   19105.90743594  .00000055  00000-0  00000-0 0  9991", "line2": "2 42698   0.0198 214.0743 0000045 178.2403 194.6206  1.00268915  7001"},
{"name": "SES-15                  ", "line1": "1 42709U 17026A   19105.64377206  .00000040  00000-0  00000-0 0  9993", "line2": "2 42709   0.0163 216.3098 0000907 174.5464 275.2580  1.00269873  7888"},
{"name": "QZS-2  (MICHIBIKI-2)    ", "line1": "1 42738U 17028A   19105.80937698 -.00000212  00000-0  00000+0 0  9993", "line2": "2 42738  43.7055 280.3805 0739547 270.9605  82.0217  1.00256136  6875"},
{"name": "VIASAT-2                ", "line1": "1 42740U 17029A   19105.91879881 -.00000285  00000-0  00000-0 0  9999", "line2": "2 42740   0.0194 207.7879 0000208 168.7494  88.1080  1.00269043  6930"},
{"name": "EUTELSAT 172B           ", "line1": "1 42741U 17029B   19105.88631903 -.00000027  00000-0  00000-0 0  9991", "line2": "2 42741   0.0127 143.8938 0000227 150.3455  40.5824  1.00271906  7455"},
{"name": "GSAT-19                 ", "line1": "1 42747U 17031A   19105.87446949  .00000104  00000-0  00000-0 0  9998", "line2": "2 42747   0.0862 101.1371 0005472 301.0256 164.2432  1.00272488  6876"},
{"name": "ECHOSTAR 21             ", "line1": "1 42749U 17032A   19105.89904608  .00000034  00000-0  00000-0 0  9996", "line2": "2 42749   6.3337 315.1827 0002394  82.2056 140.2825  1.00273691  6847"},
{"name": "CHINASAT 9A (ZX 9A)     ", "line1": "1 42763U 17035A   19105.65688861 -.00000332  00000-0  00000-0 0  9991", "line2": "2 42763   0.0114 212.0762 0005124 216.3743 112.8985  1.00265793  7383"},
{"name": "BULGARIASAT-1           ", "line1": "1 42801U 17038A   19105.92417941 -.00000010  00000-0  00000-0 0  9999", "line2": "2 42801   0.0178 257.1236 0002658 137.6575 143.6011  1.00272178  6576"},
{"name": "HELLAS-SAT 3            ", "line1": "1 42814U 17040A   19105.85772123  .00000132  00000-0  00000+0 0  9997", "line2": "2 42814   0.0908  54.4680 0005314 325.4406 171.5566  1.00270957  6628"},
{"name": "GSAT-17                 ", "line1": "1 42815U 17040B   19105.95131795 -.00000279  00000-0  00000-0 0  9997", "line2": "2 42815   0.0727 101.4619 0003929 209.5757 328.7636  1.00271116  6558"},
{"name": "INTELSAT 35E (IS-35E)   ", "line1": "1 42818U 17041A   19105.84931694 -.00000259  00000-0  00000-0 0  9993", "line2": "2 42818   0.0202 185.2182 0002267 205.9461  83.7746  1.00267532  6614"},
{"name": "COSMOS 2520             ", "line1": "1 42907U 17046A   19105.93272852  .00000116  00000-0  00000-0 0  9992", "line2": "2 42907   0.0143 155.3462 0001248 287.5401 141.6567  1.00271706  6123"},
{"name": "TDRS 13                 ", "line1": "1 42915U 17047A   19105.92147508 -.00000128  00000-0  00000-0 0  9994", "line2": "2 42915   6.2166 330.5973 0015950  75.5633 117.8538  1.00271646  6087"}
]
}